UWE-3                   
1 39446U 13066AG  26066.38896579  .00008062  00000+0  70424-3 0  9992
2 39446  97.8593  21.9121 0048642 300.1835  59.4572 14.96147910662355
UNISAT-6                
1 40012U 14033C   26066.38650689  .00005060  00000+0  55159-3 0  9991
2 40012  97.7724 221.0127 0046264  45.3615 315.1359 14.87618735631025
DUCHIFAT-1              
1 40021U 14033M   26066.56898411  .00076511  00000+0  13790-2 0  9991
2 40021  98.0631 112.7467 0006387  90.3519 269.8462 15.49495114639946
QB50P1                  
1 40025U 14033R   26066.53257418  .00014036  00000+0  72370-3 0  9992
2 40025  98.1011  70.6697 0008058 201.8424 158.2465 15.16462692637616
LILACSAT-2              
1 40908U 15049K   26066.64022192  .00023718  00000+0  45576-3 0  9996
2 40908  97.4810  99.7933 0005603 255.1565 104.9065 15.47931498580026
FOX-1A (AO-85)          
1 40967U 15058D   26066.64643629  .00005788  00000+0  52136-3 0  9992
2 40967  64.7744 234.3848 0129017  96.7392 264.8421 14.90334877 98435
CAS-2T & KS-1Q          
1 41847U 16066G   26066.21333604  .00001869  00000+0  26891-3 0  9997
2 41847  98.3891 143.0907 0343739  78.9755 284.9891 14.44460776490072
RADFXSAT (FOX-1B)       
1 43017U 17073E   26066.60831632  .00013863  00000+0  62795-3 0  9994
2 43017  97.4857 295.9489 0154740 319.3850  39.5917 15.10822070450046
DIWATA-2B               
1 43678U 18084H   26066.58753147  .00002405  00000+0  19866-3 0  9992
2 43678  98.1033 258.5379 0011517 133.4410 226.7772 14.99946542400981
ES'HAIL 2               
1 43700U 18090A   26066.22848935  .00000142  00000+0  00000+0 0  9998
2 43700   0.0192 182.4676 0001105 159.7602 290.7260  1.00274591 26653
FOX-1CLIFF (AO-95)      
1 43770U 18099N   26066.41136696  .00017397  00000+0  71232-3 0  9998
2 43770  97.4510 127.1461 0008531 355.5150   4.6009 15.24338104397708
ITASAT                  
1 43786U 18099AE  26066.59876235  .00010102  00000+0  50415-3 0  9991
2 43786  97.4166 120.1695 0012418 354.3331   5.7760 15.17633524397499
JY1SAT (JO-97)          
1 43803U 18099AX  26066.59384026  .00025462  00000+0  87172-3 0  9998
2 43803  97.4252 129.2701 0004720 266.7066  93.3634 15.30202394398071
UWE-4                   
1 43880U 18111E   26066.27075933  .00046208  00000+0  11617-2 0  9998
2 43880  97.5854 350.4716 0007979 349.6641  10.4438 15.39786673395062
TIANYAN 01              
1 44881U 19093C   26066.59873634  .00000749  00000+0  90886-4 0  9996
2 44881  97.7614 141.2865 0014943  63.9074 296.3678 14.86333699336328
RS-44 & BREEZE-KM R/B   
1 44909U 19096E   26066.44917761  .00000010  00000+0 -65601-5 0  9994
2 44909  82.5199  47.3033 0218019  22.5478 338.5026 12.79747421289337
SALSAT                  
1 46495U 20068K   26066.51222839  .00013690  00000+0  50125-3 0  9990
2 46495  97.8857  63.5159 0008413 306.1351  53.9108 15.28132776299826
