[{"OBJECT_NAME":"UWE-3","OBJECT_ID":"2013-066AG","EPOCH":"2026-03-07T09:20:06.644256","MEAN_MOTION":14.9614791,"ECCENTRICITY":0.0048642,"INCLINATION":97.8593,"RA_OF_ASC_NODE":21.9121,"ARG_OF_PERICENTER":300.1835,"MEAN_ANOMALY":59.4572,"EPHEMERIS_TYPE":0,"CLASSIFICATION_TYPE":"U","NORAD_CAT_ID":39446,"ELEMENT_SET_NO":999,"REV_AT_EPOCH":66235,"BSTAR":0.00070423828,"MEAN_MOTION_DOT":8.062e-5,"MEAN_MOTION_DDOT":0},{"OBJECT_NAME":"UNISAT-6","OBJECT_ID":"2014-033C","EPOCH":"2026-03-07T09:16:34.195296","MEAN_MOTION":14.87618735,"ECCENTRICITY":0.00462646,"INCLINATION":97.7724,"RA_OF_ASC_NODE":221.0127,"ARG_OF_PERICENTER":45.3615,"MEAN_ANOMALY":315.1359,"EPHEMERIS_TYPE":0,"CLASSIFICATION_TYPE":"U","NORAD_CAT_ID":40012,"ELEMENT_SET_NO":999,"REV_AT_EPOCH":63102,"BSTAR":0.00055158657,"MEAN_MOTION_DOT":5.06e-5,"MEAN_MOTION_DDOT":0},{"OBJECT_NAME":"DUCHIFAT-1","OBJECT_ID":"2014-033M","EPOCH":"2026-03-07T13:39:20.227104","MEAN_MOTION":15.49495114,"ECCENTRICITY":0.00063873,"INCLINATION":98.0631,"RA_OF_ASC_NODE":112.7467,"ARG_OF_PERICENTER":90.3519,"MEAN_ANOMALY":269.8462,"EPHEMERIS_TYPE":0,"CLASSIFICATION_TYPE":"U","NORAD_CAT_ID":40021,"ELEMENT_SET_NO":999,"REV_AT_EPOCH":63994,"BSTAR":0.0013789737,"MEAN_MOTION_DOT":0.00076511,"MEAN_MOTION_DDOT":0},{"OBJECT_NAME":"QB50P1","OBJECT_ID":"2014-033R","EPOCH":"2026-03-07T12:46:54.409152","MEAN_MOTION":15.16462692,"ECCENTRICITY":0.00080586,"INCLINATION":98.1011,"RA_OF_ASC_NODE":70.6697,"ARG_OF_PERICENTER":201.8424,"MEAN_ANOMALY":158.2465,"EPHEMERIS_TYPE":0,"CLASSIFICATION_TYPE":"U","NORAD_CAT_ID":40025,"ELEMENT_SET_NO":999,"REV_AT_EPOCH":63761,"BSTAR":0.00072370035,"MEAN_MOTION_DOT":0.00014036,"MEAN_MOTION_DDOT":0},{"OBJECT_NAME":"LILACSAT-2","OBJECT_ID":"2015-049K","EPOCH":"2026-03-07T15:21:55.173888","MEAN_MOTION":15.47931498,"ECCENTRICITY":0.00056033,"INCLINATION":97.481,"RA_OF_ASC_NODE":99.7933,"ARG_OF_PERICENTER":255.1565,"MEAN_ANOMALY":104.9065,"EPHEMERIS_TYPE":0,"CLASSIFICATION_TYPE":"U","NORAD_CAT_ID":40908,"ELEMENT_SET_NO":999,"REV_AT_EPOCH":58002,"BSTAR":0.000455761,"MEAN_MOTION_DOT":0.00023718,"MEAN_MOTION_DDOT":0},{"OBJECT_NAME":"FOX-1A (AO-85)","OBJECT_ID":"2015-058D","EPOCH":"2026-03-07T15:30:52.095456","MEAN_MOTION":14.90334877,"ECCENTRICITY":0.01290177,"INCLINATION":64.7744,"RA_OF_ASC_NODE":234.3848,"ARG_OF_PERICENTER":96.7392,"MEAN_ANOMALY":264.8421,"EPHEMERIS_TYPE":0,"CLASSIFICATION_TYPE":"U","NORAD_CAT_ID":40967,"ELEMENT_SET_NO":999,"REV_AT_EPOCH":9843,"BSTAR":0.00052136363,"MEAN_MOTION_DOT":5.788e-5,"MEAN_MOTION_DDOT":0},{"OBJECT_NAME":"CAS-2T & KS-1Q","OBJECT_ID":"2016-066G","EPOCH":"2026-03-07T05:07:12.233856","MEAN_MOTION":14.44460776,"ECCENTRICITY":0.0343739,"INCLINATION":98.3891,"RA_OF_ASC_NODE":143.0907,"ARG_OF_PERICENTER":78.9755,"MEAN_ANOMALY":284.9891,"EPHEMERIS_TYPE":0,"CLASSIFICATION_TYPE":"U","NORAD_CAT_ID":41847,"ELEMENT_SET_NO":999,"REV_AT_EPOCH":49007,"BSTAR":0.00026891,"MEAN_MOTION_DOT":1.869e-5,"MEAN_MOTION_DDOT":0},{"OBJECT_NAME":"RADFXSAT (FOX-1B)","OBJECT_ID":"2017-073E","EPOCH":"2026-03-07T14:35:58.530048","MEAN_MOTION":15.1082207,"ECCENTRICITY":0.01547404,"INCLINATION":97.4857,"RA_OF_ASC_NODE":295.9489,"ARG_OF_PERICENTER":319.385,"MEAN_ANOMALY":39.5917,"EPHEMERIS_TYPE":0,"CLASSIFICATION_TYPE":"U","NORAD_CAT_ID":43017,"ELEMENT_SET_NO":999,"REV_AT_EPOCH":45004,"BSTAR":0.000627953,"MEAN_MOTION_DOT":0.00013863,"MEAN_MOTION_DDOT":0},{"OBJECT_NAME":"DIWATA-2B","OBJECT_ID":"2018-084H","EPOCH":"2026-03-07T14:06:02.719008","MEAN_MOTION":14.99946542,"ECCENTRICITY":0.00115174,"INCLINATION":98.1033,"RA_OF_ASC_NODE":258.5379,"ARG_OF_PERICENTER":133.441,"MEAN_ANOMALY":226.7772,"EPHEMERIS_TYPE":0,"CLASSIFICATION_TYPE":"U","NORAD_CAT_ID":43678,"ELEMENT_SET_NO":999,"REV_AT_EPOCH":40098,"BSTAR":0.00019865924,"MEAN_MOTION_DOT":2.405e-5,"MEAN_MOTION_DDOT":0},{"OBJECT_NAME":"ES'HAIL 2","OBJECT_ID":"2018-090A","EPOCH":"2026-03-07T05:29:01.479840","MEAN_MOTION":1.00274591,"ECCENTRICITY":0.0001105,"INCLINATION":0.0192,"RA_OF_ASC_NODE":182.4676,"ARG_OF_PERICENTER":159.7602,"MEAN_ANOMALY":290.726,"EPHEMERIS_TYPE":0,"CLASSIFICATION_TYPE":"U","NORAD_CAT_ID":43700,"ELEMENT_SET_NO":999,"REV_AT_EPOCH":2665,"BSTAR":0,"MEAN_MOTION_DOT":1.42e-6,"MEAN_MOTION_DDOT":0},{"OBJECT_NAME":"FOX-1CLIFF (AO-95)","OBJECT_ID":"2018-099N","EPOCH":"2026-03-07T09:52:22.105344","MEAN_MOTION":15.24338104,"ECCENTRICITY":0.0008531,"INCLINATION":97.451,"RA_OF_ASC_NODE":127.1461,"ARG_OF_PERICENTER":355.515,"MEAN_ANOMALY":4.6009,"EPHEMERIS_TYPE":0,"CLASSIFICATION_TYPE":"U","NORAD_CAT_ID":43770,"ELEMENT_SET_NO":999,"REV_AT_EPOCH":39770,"BSTAR":0.00071231608,"MEAN_MOTION_DOT":0.00017397,"MEAN_MOTION_DDOT":0},{"OBJECT_NAME":"ITASAT","OBJECT_ID":"2018-099AE","EPOCH":"2026-03-07T14:22:13.067040","MEAN_MOTION":15.17633524,"ECCENTRICITY":0.00124185,"INCLINATION":97.4166,"RA_OF_ASC_NODE":120.1695,"ARG_OF_PERICENTER":354.3331,"MEAN_ANOMALY":5.776,"EPHEMERIS_TYPE":0,"CLASSIFICATION_TYPE":"U","NORAD_CAT_ID":43786,"ELEMENT_SET_NO":999,"REV_AT_EPOCH":39749,"BSTAR":0.00050415277,"MEAN_MOTION_DOT":0.00010102,"MEAN_MOTION_DDOT":0},{"OBJECT_NAME":"JY1SAT (JO-97)","OBJECT_ID":"2018-099AX","EPOCH":"2026-03-07T14:15:07.798464","MEAN_MOTION":15.30202394,"ECCENTRICITY":0.00047206,"INCLINATION":97.4252,"RA_OF_ASC_NODE":129.2701,"ARG_OF_PERICENTER":266.7066,"MEAN_ANOMALY":93.3634,"EPHEMERIS_TYPE":0,"CLASSIFICATION_TYPE":"U","NORAD_CAT_ID":43803,"ELEMENT_SET_NO":999,"REV_AT_EPOCH":39807,"BSTAR":0.00087172134,"MEAN_MOTION_DOT":0.00025462,"MEAN_MOTION_DDOT":0},{"OBJECT_NAME":"UWE-4","OBJECT_ID":"2018-111E","EPOCH":"2026-03-07T06:29:53.606112","MEAN_MOTION":15.39786673,"ECCENTRICITY":0.0007979,"INCLINATION":97.5854,"RA_OF_ASC_NODE":350.4716,"ARG_OF_PERICENTER":349.6641,"MEAN_ANOMALY":10.4438,"EPHEMERIS_TYPE":0,"CLASSIFICATION_TYPE":"U","NORAD_CAT_ID":43880,"ELEMENT_SET_NO":999,"REV_AT_EPOCH":39506,"BSTAR":0.0011617,"MEAN_MOTION_DOT":0.00046208,"MEAN_MOTION_DDOT":0},{"OBJECT_NAME":"TIANYAN 01","OBJECT_ID":"2019-093C","EPOCH":"2026-03-07T14:22:10.819776","MEAN_MOTION":14.86333699,"ECCENTRICITY":0.00149435,"INCLINATION":97.7614,"RA_OF_ASC_NODE":141.2865,"ARG_OF_PERICENTER":63.9074,"MEAN_ANOMALY":296.3678,"EPHEMERIS_TYPE":0,"CLASSIFICATION_TYPE":"U","NORAD_CAT_ID":44881,"ELEMENT_SET_NO":999,"REV_AT_EPOCH":33632,"BSTAR":9.0885721e-5,"MEAN_MOTION_DOT":7.49e-6,"MEAN_MOTION_DDOT":0},{"OBJECT_NAME":"RS-44 & BREEZE-KM R/B","OBJECT_ID":"2019-096E","EPOCH":"2026-03-07T10:46:48.945504","MEAN_MOTION":12.79747421,"ECCENTRICITY":0.02180197,"INCLINATION":82.5199,"RA_OF_ASC_NODE":47.3033,"ARG_OF_PERICENTER":22.5478,"MEAN_ANOMALY":338.5026,"EPHEMERIS_TYPE":0,"CLASSIFICATION_TYPE":"U","NORAD_CAT_ID":44909,"ELEMENT_SET_NO":999,"REV_AT_EPOCH":28933,"BSTAR":-6.560091e-6,"MEAN_MOTION_DOT":1.0e-7,"MEAN_MOTION_DDOT":0},{"OBJECT_NAME":"SALSAT","OBJECT_ID":"2020-068K","EPOCH":"2026-03-07T12:17:36.532896","MEAN_MOTION":15.28132776,"ECCENTRICITY":0.00084131,"INCLINATION":97.8857,"RA_OF_ASC_NODE":63.5159,"ARG_OF_PERICENTER":306.1351,"MEAN_ANOMALY":53.9108,"EPHEMERIS_TYPE":0,"CLASSIFICATION_TYPE":"U","NORAD_CAT_ID":46495,"ELEMENT_SET_NO":999,"REV_AT_EPOCH":29982,"BSTAR":0.0005012467,"MEAN_MOTION_DOT":0.0001369,"MEAN_MOTION_DDOT":0}]
